39074,GLOBALSTAR M094,2013,114.08,700.0,+,52.0,Active,1,LEO,Kazakhstan,Globalstar,Commercial,Communications,Soyuz,1 39074U 13005C   23340.45426484 -.00000097  00000+0  38518-4 0  9996,2 39074  51.9963  83.2917 0000951 119.5351 240.5610 12.62270174501813,12.62270174,9.51e-05,LEO
39075,GLOBALSTAR M096,2013,114.08,700.0,+,52.0,Active,1,LEO,Kazakhstan,Globalstar,Commercial,Communications,Soyuz,1 39075U 13005D   23340.38838016 -.00000082  00000+0  12216-3 0  9997,2 39075  52.0052 131.5716 0001354 106.2859 253.8157 12.62266849500729,12.62266849,0.0001354,LEO
39076,GLOBALSTAR M078,2013,114.08,700.0,+,51.99,Active,1,LEO,Kazakhstan,Globalstar,Commercial,Communications,Soyuz,1 39076U 13005E   23340.04510082 -.00000144  00000+0 -22530-3 0  9991,2 39076  51.9866 217.8880 0001701  46.7316 313.3692 12.62264162499306,12.62264162,0.0001701,LEO
39077,GLOBALSTAR M095,2013,114.08,700.0,+,51.98,Active,1,LEO,Kazakhstan,Globalstar,Commercial,Communications,Soyuz,1 39077U 13005F   23340.07150704 -.00000083  00000+0  11505-3 0  9997,2 39077  51.9785 215.2825 0001674  68.2036 291.9008 12.62271644499164,12.62271644,0.0001674,LEO
52888,GLOBALSTAR M087,2022,107.66,715.0,+,51.97,Active,1,LEO,USA,USA,Commercial,Communications,Falcon,1 52888U 22064A   23339.90307843 -.00000092  00000+0  69089-4 0  9996,2 52888  51.9736 165.8325 0008685 227.4318 132.5850 13.37559831 71522,13.37559831,0.0008685,LEO
